{
  "type": "FeatureCollection",
  "features": [
    {
      "type": "Feature",
      "properties": {
        "norad_id": 33822,
        "name": "COSMOS 2251 DEB",
        "group": "cosmos-2251-debris",
        "lat": 70.60037076276697,
        "lon": -48.40954390627806,
        "alt_km": 911.512840264274,
        "timestamp": "2025-12-17T04:57:44.753673+00:00",
        "meta_object_name": "COSMOS 2251 DEB",
        "meta_object_id": "1993-036BP",
        "meta_epoch": "2025-12-16T23:57:09.259776",
        "meta_mean_motion": 14.13090786,
        "meta_eccentricity": 0.01530463,
        "meta_inclination": 74.0683,
        "meta_ra_of_asc_node": 186.1649,
        "meta_arg_of_pericenter": 231.4529,
        "meta_mean_anomaly": 249.5965,
        "meta_ephemeris_type": 0,
        "meta_classification_type": "U",
        "meta_norad_cat_id": 33822,
        "meta_element_set_no": 999,
        "meta_rev_at_epoch": 86114,
        "meta_bstar": 0.00099623306,
        "meta_mean_motion_dot": 2.055e-05,
        "meta_mean_motion_ddot": 0,
        "tle_line1": "1 33822U 93036BP  25350.99802384  .00002055  00000+0  99623-3 0  9990",
        "tle_line2": "2 33822  74.0683 186.1649 0153046 231.4529 249.5965 14.13090786861147"
      },
      "geometry": {
        "type": "Point",
        "coordinates": [
          -48.40954390627806,
          70.60037076276697
        ]
      }
    },
    {
      "type": "Feature",
      "properties": {
        "norad_id": 33823,
        "name": "COSMOS 2251 DEB",
        "group": "cosmos-2251-debris",
        "lat": 55.31567185567329,
        "lon": 166.32538737768473,
        "alt_km": 1026.8326073328572,
        "timestamp": "2025-12-17T04:57:44.753683+00:00",
        "meta_object_name": "COSMOS 2251 DEB",
        "meta_object_id": "1993-036BQ",
        "meta_epoch": "2025-12-16T20:41:49.734816",
        "meta_mean_motion": 13.98960481,
        "meta_eccentricity": 0.02093231,
        "meta_inclination": 73.8092,
        "meta_ra_of_asc_node": 142.1049,
        "meta_arg_of_pericenter": 266.5901,
        "meta_mean_anomaly": 217.5052,
        "meta_ephemeris_type": 0,
        "meta_classification_type": "U",
        "meta_norad_cat_id": 33823,
        "meta_element_set_no": 999,
        "meta_rev_at_epoch": 85667,
        "meta_bstar": 0.00069979496,
        "meta_mean_motion_dot": 1.192e-05,
        "meta_mean_motion_ddot": 0,
        "tle_line1": "1 33823U 93036BQ  25350.86238119  .00001192  00000+0  69979-3 0  9998",
        "tle_line2": "2 33823  73.8092 142.1049 0209323 266.5901 217.5052 13.98960481856672"
      },
      "geometry": {
        "type": "Point",
        "coordinates": [
          166.32538737768473,
          55.31567185567329
        ]
      }
    },
    {
      "type": "Feature",
      "properties": {
        "norad_id": 33825,
        "name": "COSMOS 2251 DEB",
        "group": "cosmos-2251-debris",
        "lat": 48.64502289830512,
        "lon": -179.93900861658784,
        "alt_km": 704.7669391025674,
        "timestamp": "2025-12-17T04:57:44.753692+00:00",
        "meta_object_name": "COSMOS 2251 DEB",
        "meta_object_id": "1993-036BS",
        "meta_epoch": "2025-12-16T12:35:16.144224",
        "meta_mean_motion": 14.69796523,
        "meta_eccentricity": 0.00847417,
        "meta_inclination": 73.9852,
        "meta_ra_of_asc_node": 20.4314,
        "meta_arg_of_pericenter": 346.5589,
        "meta_mean_anomaly": 132.827,
        "meta_ephemeris_type": 0,
        "meta_classification_type": "U",
        "meta_norad_cat_id": 33825,
        "meta_element_set_no": 999,
        "meta_rev_at_epoch": 88935,
        "meta_bstar": 0.00056703926,
        "meta_mean_motion_dot": 3.544e-05,
        "meta_mean_motion_ddot": 0,
        "tle_line1": "1 33825U 93036BS  25350.52449241  .00003544  00000+0  56704-3 0  9998",
        "tle_line2": "2 33825  73.9852  20.4314 0084741 346.5589 132.8270 14.69796523889353"
      },
      "geometry": {
        "type": "Point",
        "coordinates": [
          -179.93900861658784,
          48.64502289830512
        ]
      }
    },
    {
      "type": "Feature",
      "properties": {
        "norad_id": 33826,
        "name": "COSMOS 2251 DEB",
        "group": "cosmos-2251-debris",
        "lat": 73.91102029104681,
        "lon": 123.59601791879263,
        "alt_km": 653.8546847403222,
        "timestamp": "2025-12-17T04:57:44.753701+00:00",
        "meta_object_name": "COSMOS 2251 DEB",
        "meta_object_id": "1993-036BT",
        "meta_epoch": "2025-12-16T12:20:10.279968",
        "meta_mean_motion": 14.51741688,
        "meta_eccentricity": 0.00828106,
        "meta_inclination": 74.0652,
        "meta_ra_of_asc_node": 42.7803,
        "meta_arg_of_pericenter": 85.8915,
        "meta_mean_anomaly": 342.8038,
        "meta_ephemeris_type": 0,
        "meta_classification_type": "U",
        "meta_norad_cat_id": 33826,
        "meta_element_set_no": 999,
        "meta_rev_at_epoch": 87824,
        "meta_bstar": 0.00051132093,
        "meta_mean_motion_dot": 2.12e-05,
        "meta_mean_motion_ddot": 0,
        "tle_line1": "1 33826U 93036BT  25350.51400787  .00002120  00000+0  51132-3 0  9999",
        "tle_line2": "2 33826  74.0652  42.7803 0082810  85.8915 342.8038 14.51741688878249"
      },
      "geometry": {
        "type": "Point",
        "coordinates": [
          123.59601791879263,
          73.91102029104681
        ]
      }
    },
    {
      "type": "Feature",
      "properties": {
        "norad_id": 33828,
        "name": "COSMOS 2251 DEB",
        "group": "cosmos-2251-debris",
        "lat": -43.16723214373813,
        "lon": 65.34855429131002,
        "alt_km": 745.5913601308866,
        "timestamp": "2025-12-17T04:57:44.753711+00:00",
        "meta_object_name": "COSMOS 2251 DEB",
        "meta_object_id": "1993-036BV",
        "meta_epoch": "2025-12-16T23:00:29.920896",
        "meta_mean_motion": 14.44345839,
        "meta_eccentricity": 0.00294844,
        "meta_inclination": 74.0457,
        "meta_ra_of_asc_node": 230.2449,
        "meta_arg_of_pericenter": 302.5307,
        "meta_mean_anomaly": 73.6254,
        "meta_ephemeris_type": 0,
        "meta_classification_type": "U",
        "meta_norad_cat_id": 33828,
        "meta_element_set_no": 999,
        "meta_rev_at_epoch": 88374,
        "meta_bstar": 0.00038045768,
        "meta_mean_motion_dot": 1.29e-05,
        "meta_mean_motion_ddot": 0,
        "tle_line1": "1 33828U 93036BV  25350.95867964  .00001290  00000+0  38046-3 0  9999",
        "tle_line2": "2 33828  74.0457 230.2449 0029484 302.5307  73.6254 14.44345839883746"
      },
      "geometry": {
        "type": "Point",
        "coordinates": [
          65.34855429131002,
          -43.16723214373813
        ]
      }
    },
    {
      "type": "Feature",
      "properties": {
        "norad_id": 33830,
        "name": "COSMOS 2251 DEB",
        "group": "cosmos-2251-debris",
        "lat": -72.84061919311478,
        "lon": 109.63143664573373,
        "alt_km": 639.139256253723,
        "timestamp": "2025-12-17T04:57:44.753720+00:00",
        "meta_object_name": "COSMOS 2251 DEB",
        "meta_object_id": "1993-036BX",
        "meta_epoch": "2025-12-16T23:22:49.145088",
        "meta_mean_motion": 14.76947899,
        "meta_eccentricity": 0.00424961,
        "meta_inclination": 74.0317,
        "meta_ra_of_asc_node": 222.0637,
        "meta_arg_of_pericenter": 341.2601,
        "meta_mean_anomaly": 126.7028,
        "meta_ephemeris_type": 0,
        "meta_classification_type": "U",
        "meta_norad_cat_id": 33830,
        "meta_element_set_no": 999,
        "meta_rev_at_epoch": 89534,
        "meta_bstar": 0.0006128746,
        "meta_mean_motion_dot": 4.347e-05,
        "meta_mean_motion_ddot": 0,
        "tle_line1": "1 33830U 93036BX  25350.97417992  .00004347  00000+0  61287-3 0  9995",
        "tle_line2": "2 33830  74.0317 222.0637 0042496 341.2601 126.7028 14.76947899895344"
      },
      "geometry": {
        "type": "Point",
        "coordinates": [
          109.63143664573373,
          -72.84061919311478
        ]
      }
    },
    {
      "type": "Feature",
      "properties": {
        "norad_id": 33832,
        "name": "COSMOS 2251 DEB",
        "group": "cosmos-2251-debris",
        "lat": 50.28592583364552,
        "lon": -138.4141271026968,
        "alt_km": 703.3132854905498,
        "timestamp": "2025-12-17T04:57:44.753730+00:00",
        "meta_object_name": "COSMOS 2251 DEB",
        "meta_object_id": "1993-036BZ",
        "meta_epoch": "2025-12-16T20:34:17.006592",
        "meta_mean_motion": 14.60696314,
        "meta_eccentricity": 0.00245509,
        "meta_inclination": 74.0536,
        "meta_ra_of_asc_node": 202.1184,
        "meta_arg_of_pericenter": 232.3307,
        "meta_mean_anomaly": 143.1191,
        "meta_ephemeris_type": 0,
        "meta_classification_type": "U",
        "meta_norad_cat_id": 33832,
        "meta_element_set_no": 999,
        "meta_rev_at_epoch": 88485,
        "meta_bstar": 0.00096755999,
        "meta_mean_motion_dot": 4.707e-05,
        "meta_mean_motion_ddot": 0,
        "tle_line1": "1 33832U 93036BZ  25350.85714128  .00004707  00000+0  96756-3 0  9994",
        "tle_line2": "2 33832  74.0536 202.1184 0024550 232.3307 143.1191 14.60696314884853"
      },
      "geometry": {
        "type": "Point",
        "coordinates": [
          -138.4141271026968,
          50.28592583364552
        ]
      }
    }
  ]
}